{
    "links": {
        "self": "http://www.neowsapp.com/rest/v1/neo/3873313?api_key=iIulBulltgU6a56xZRHN4H3l9WmuAYTsLGpBGhQ2"
    },
    "id": "3873313",
    "neo_reference_id": "3873313",
    "name": "(2019 SQ10)",
    "designation": "2019 SQ10",
    "nasa_jpl_url": "http://ssd.jpl.nasa.gov/sbdb.cgi?sstr=3873313",
    "absolute_magnitude_h": 25.3,
    "estimated_diameter": {
        "kilometers": {
            "estimated_diameter_min": 0.0231502122,
            "estimated_diameter_max": 0.0517654482
        },
        "meters": {
            "estimated_diameter_min": 23.150212221,
            "estimated_diameter_max": 51.7654482198
        },
        "miles": {
            "estimated_diameter_min": 0.0143848705,
            "estimated_diameter_max": 0.0321655483
        },
        "feet": {
            "estimated_diameter_min": 75.9521422633,
            "estimated_diameter_max": 169.8341531374
        }
    },
    "is_potentially_hazardous_asteroid": false,
    "close_approach_data": [
        {
            "close_approach_date": "2019-09-13",
            "close_approach_date_full": "2019-Sep-13 20:50",
            "epoch_date_close_approach": 1568407800000,
            "relative_velocity": {
                "kilometers_per_second": "5.9037630739",
                "kilometers_per_hour": "21253.547066166",
                "miles_per_hour": "13206.1276200852"
            },
            "miss_distance": {
                "astronomical": "0.0410312963",
                "lunar": "15.9611742607",
                "kilometers": "6138194.529818881",
                "miles": "3814097.2187913178"
            },
            "orbiting_body": "Earth"
        },
        {
            "close_approach_date": "2075-08-03",
            "close_approach_date_full": "2075-Aug-03 11:03",
            "epoch_date_close_approach": 3332055780000,
            "relative_velocity": {
                "kilometers_per_second": "12.7730718955",
                "kilometers_per_hour": "45983.0588238637",
                "miles_per_hour": "28572.0845230835"
            },
            "miss_distance": {
                "astronomical": "0.2863314132",
                "lunar": "111.3829197348",
                "kilometers": "42834569.528809884",
                "miles": "26616167.2971250392"
            },
            "orbiting_body": "Earth"
        }
    ],
    "orbital_data": {
        "orbit_id": "1",
        "orbit_determination_date": "2019-10-03 06:42:07",
        "first_observation_date": "2019-09-30",
        "last_observation_date": "2019-10-03",
        "data_arc_in_days": 3,
        "observations_used": 14,
        "orbit_uncertainty": "8",
        "minimum_orbit_intersection": ".0180752",
        "jupiter_tisserand_invariant": "4.445",
        "epoch_osculation": "2458758.5",
        "eccentricity": ".327666410842716",
        "semi_major_axis": "1.515931209068034",
        "inclination": "7.08857190681272",
        "ascending_node_longitude": "183.9864475639418",
        "orbital_period": "681.7382601578591",
        "perihelion_distance": "1.019211470708252",
        "perihelion_argument": "171.9879940204895",
        "aphelion_distance": "2.012650947427815",
        "perihelion_time": "2458743.926556860680",
        "mean_anomaly": "7.695680053134127",
        "mean_motion": ".5280618985894097",
        "equinox": "J2000",
        "orbit_class": {
            "orbit_class_type": "AMO",
            "orbit_class_description": "Near-Earth asteroid orbits similar to that of 1221 Amor",
            "orbit_class_range": "1.017 AU < q (perihelion) < 1.3 AU"
        }
    },
    "is_sentry_object": false
}